0 BSAT-1B
1 25312U 98024B   18339.31139076 +.00000067 +00000-0 +00000-0 0  9993
2 25312 005.9316 064.7515 0007788 209.0540 150.6804 00.99117103018898
0 COSMOS 2350
1 25315U 98025A   18339.68938502 -.00000147 +00000-0 +00000-0 0  9998
2 25315 012.8019 024.4970 0001145 066.9890 309.9255 01.00261328075439
0 SL-12 R/B(2)
1 25318U 98025D   18339.87280054 -.00000051 +00000-0 +00000-0 0  9998
2 25318 012.8198 024.5265 0028427 056.0631 123.1657 01.00066785075255
0 IRIDIUM 69
1 25319U 98026A   18340.59652585  .00000125  00000-0  34093-4 0  9997
2 25319  86.3999  19.6551 0001191  29.0495 331.0770 14.38769178 80300
0 IRIDIUM 71
1 25320U 98026B   18340.57153162  .00000060  00000-0  13080-4 0  9995
2 25320  86.3977  15.2950 0003391  56.3453 303.8068 14.39173727 80750
0 COSMOS 2351
1 25327U 98027A   18340.18953430 -.00000924  00000-0  00000+0 0  9999
2 25327  66.5285  49.5257 6555217 199.9010 112.7850  2.00627905150792
0 COSMOS 2351
1 25327U 98027A   18339.19259495 -.00000952 +00000-0 +00000-0 0  9990
2 25327 066.5286 049.6094 6555194 199.9184 112.7400 02.00629365150781
0 SL-6 R/B(2)
1 25330U 98027D   18339.07192992 -.00000894 +00000-0 +00000-0 0  9994
2 25330 064.2084 317.9360 7055760 196.7516 115.7460 02.03484476152902
0 ECHOSTAR 4
1 25331U 98028A   18339.84671696 +.00000030 +00000-0 +00000-0 0  9995
2 25331 007.5878 045.8633 0017241 229.5274 148.2540 00.98948579075124
0 SL-12 R/B(2)
1 25334U 98028D   18338.97618772 -.00000098 +00000-0 +00000-0 0  9992
2 25334 015.1094 251.4521 4916157 230.3324 070.1277 01.82176891136916
0 NOAA 15
1 25338U 98030A   18339.83246936 +.00000033 +00000-0 +32494-4 0  9998
2 25338 098.7610 356.3101 0011520 089.4230 270.8270 14.25886186069222
0 NOAA 15
1 25338U 98030A   18340.60435601  .00000024  00000-0  28923-4 0  9996
2 25338  98.7609 357.0816 0011516  87.3858 272.8639 14.25886300 69598
0 NOAA 15
1 25338U 98030A   18340.60435601  .00000024  00000-0  28923-4 0  9996
2 25338  98.7609 357.0816 0011516  87.3858 272.8639 14.25886300 69598
0 SL-12 R/B(2)
1 25339U 96053D   18340.20860924 -.00000033  00000-0  00000+0 0  9998
2 25339  14.0268  24.3000 0056840 249.9397 295.7091  0.98092643 73701
0 SL-12 R/B(2)
1 25339U 96053D   18339.70705208 -.00000029 +00000-0 +00000-0 0  9990
2 25339 014.0265 024.3044 0056826 249.9043 118.6220 00.98092539073664
0 IRIDIUM 73
1 25344U 98032C   18339.95903543 +.00000122 +00000-0 +26734-4 0  9993
2 25344 086.4402 336.0845 0002849 086.1427 274.0103 14.49148205084988
0 IRIDIUM 73
1 25344U 98032C   18340.51143796  .00000118  00000-0  25720-4 0  9992
2 25344  86.4402 335.8507 0002839  85.7017 274.4512 14.49148312 85369
0 METEOSAT 7 AKM
1 25353U 97049E   18339.83786539 +.00000050 +00000-0 +00000-0 0  9995
2 25353 013.5357 021.2037 0081860 264.7243 094.3111 01.00638619083813
0 CHINASAT 5A (CHINASTAR1)
1 25354U 98033A   18339.91816326 +.00000043 +00000-0 +00000-0 0  9999
2 25354 002.3947 084.1565 0005042 190.6144 172.9215 00.98991694079649
0 THOR 3
1 25358U 98035A   18338.96268526 -.00000049 +00000-0 +00000-0 0  9999
2 25358 006.3218 056.2022 0001913 201.5196 158.2806 01.00271688075263
0 DELTA 2 R/B(1)
1 25359U 98035B   18339.44244624 +.00000154 +00000-0 +11566-3 0  9995
2 25359 026.3851 307.7024 0513857 043.3382 102.5072 12.94456779970003
0 DELTA 2 R/B(1)
1 25359U 98035B   18340.20586962  .00000151  00000-0  11009-3 0  9994
2 25359  26.3849 304.0884 0513857  49.4111  60.0960 12.94456843970333
0 DELTA 2 R/B(2)
1 25360U 98035C   18339.73689691 -.00000113 +00000-0 +00000-0 0  9990
2 25360 018.5789 203.4910 6944809 108.2039 353.0285 02.11094298158060
0 COSMOS 2352
1 25363U 98036A   18339.90289479 +.00000029 +00000-0 +17721-3 0  9999
2 25363 082.5911 185.2988 0351660 276.0823 216.6707 12.20092208911902
0 COSMOS 2353
1 25364U 98036B   18339.94403974 +.00000039 +00000-0 +23956-3 0  9990
2 25364 082.5875 169.2565 0355331 223.2753 133.9899 12.21802356913167
0 COSMOS 2354
1 25365U 98036C   18339.92379376 +.00000029 +00000-0 +17583-3 0  9995
2 25365 082.5814 173.7588 0352480 256.0430 230.1226 12.20842466912465
0 COSMOS 2355
1 25366U 98036D   18339.95048819 +.00000027 +00000-0 +14619-3 0  9999
2 25366 082.5864 169.0910 0352824 225.4217 256.2514 12.21773818913154
0 COSMOS 2356
1 25367U 98036E   18339.80660597 +.00000019 +00000-0 +77604-4 0  9992
2 25367 082.5781 158.9963 0355784 208.3250 149.8065 12.22390771913616
0 COSMOS 2357
1 25368U 98036F   18339.90777038 +.00000002 +00000-0 -63517-4 0  9994
2 25368 082.5842 154.4812 0356170 176.4399 183.9335 12.23341213914335
0 COSMOS 2357
1 25368U 98036F   18339.98955579  .00000003  00000-0 -58780-4 0  9997
2 25368  82.5841 154.4326 0356175 176.2667 184.1193 12.23341222914330
0 INTELSAT 805
1 25371U 98037A   18340.14007961 -.00000030  00000-0  00000+0 0  9992
2 25371   1.1760  91.8955 0003011 167.2956  35.2200  1.00272485 74982
0 INTELSAT 805
1 25371U 98037A   18339.87149201 -.00000030 +00000-0 +00000-0 0  9995
2 25371 001.1754 091.8965 0003009 166.9648 298.5932 01.00272424074975
0 FASAT B
1 25395U 98043B   18339.68026262 -.00000001 +00000-0 +17976-4 0  9990
2 25395 098.6280 278.8775 0003200 145.4955 214.6433 14.25208629060942
0 TMSAT
1 25396U 98043C   18339.45219738 -.00000006 +00000-0 +16133-4 0  9997
2 25396 098.6445 278.0957 0002280 182.7169 177.3998 14.24499551060269
0 TMSAT
1 25396U 98043C   18340.43555640 -.00000006  00000-0  16176-4 0  9999
2 25396  98.6447 279.0635 0002331 179.6558 180.4623 14.24499629 60669
0 TECHSAT 1B
1 25397U 98043D   18340.43259383 -.00000026  00000-0  75939-5 0  9990
2 25397  98.6682 278.1477 0000562 181.2903 178.8275 14.23656263 60237
0 TECHSAT 1B
1 25397U 98043D   18339.44865333 -.00000028 +00000-0 +68927-5 0  9998
2 25397 098.6680 277.1781 0000508 184.7140 175.4033 14.23656219059877
0 WESTPAC
1 25398U 98043E   18339.90123603 -.00000038 +00000-0 +24188-5 0  9999
2 25398 098.6734 275.7533 0000985 168.0316 192.0886 14.22830970059829
0 WESTPAC
1 25398U 98043E   18339.90123603 -.00000038  00000-0  24188-5 0  9999
2 25398  98.6734 275.7533 0000985 168.0316 192.0886 14.22830970 59818
0 SAFIR 2
1 25399U 98043F   18339.83608819 -.00000003 +00000-0 +17586-4 0  9994
2 25399 098.6356 278.1434 0002375 130.6091 229.5295 14.24627817059643
0 SL-16 R/B
1 25400U 98043G   18339.42965191 -.00000036 +00000-0 +28033-5 0  9997
2 25400 098.5519 277.4329 0010132 162.4984 197.6547 14.25434944061236
0 SL-16 R/B
1 25400U 98043G   18339.99120423 -.00000032  00000-0  47398-5 0  9991
2 25400  98.5520 277.9805 0010154 160.9104 199.2459 14.25434971 61547
0 SL-16 DEB
1 25401U 98043H   18339.80049149 -.00000085 +00000-0 -31828-4 0  9996
2 25401 098.5564 275.6042 0164616 053.6185 335.4736 13.93714614037346
0 SL-16 DEB
1 25402U 98043J   18339.86962442 +.00000107 +00000-0 +10248-3 0  9998
2 25402 099.3427 310.9810 0153860 268.6063 119.6554 13.95819392038861
0 SL-16 DEB
1 25403U 98043K   18339.92334416 -.00000036 +00000-0 +26890-5 0  9994
2 25403 098.5289 137.2838 0212667 227.3730 287.4822 13.77726296025603
0 SL-16 DEB
1 25403U 98043K   18340.06190109 -.00000035  00000-0  29767-5 0  9995
2 25403  98.5289 137.4084 0212674 226.9971 254.7008 13.77726304 25814
0 CHINASAT 5B (SINOSAT 1)
1 25404U 98044A   18340.16229872 -.00000102  00000-0  00000+0 0  9996
2 25404   5.4223  63.3408 0012659 192.2485 158.6792  0.99185322 74627
0 CHINASAT 5B (SINOSAT 1)
1 25404U 98044A   18339.26728788 -.00000121 +00000-0 +00000-0 0  9997
2 25404 005.4206 063.3442 0012658 191.9056 199.4334 00.99185582074628
0 CZ-3B R/B
1 25405U 98044B   18339.26338272 +.00000055 +00000-0 +84950-3 0  9997
2 25405 018.3926 270.9406 7162506 062.6203 014.4206 02.25612365167969
0 CZ-3B R/B
1 25405U 98044B   18340.14265362  .00000036  00000-0  83474-3 0  9994
2 25405  18.3906 270.6156 7162461  63.2074   8.5682  2.25612456168042
0 COSMOS 2360
1 25406U 98045A   18340.40953412 -.00000072  00000-0 -12606-4 0  9997
2 25406  70.8540 324.7036 0004336 134.5057 225.6418 14.12549362 49973
0 COSMOS 2360
1 25406U 98045A   18339.41812811 -.00000064 +00000-0 -82488-5 0  9990
2 25406 070.8539 326.7926 0004415 136.3868 223.7602 14.12549396049611
0 SL-16 R/B
1 25407U 98045B   18339.48508231 -.00000211 +00000-0 -82974-4 0  9999
2 25407 071.0119 354.4023 0005421 117.8749 242.2924 14.15782023051823
0 SL-16 R/B
1 25407U 98045B   18340.40357732 -.00000240  00000-0 -97724-4 0  9992
2 25407  71.0118 352.4719 0005403 116.0923 244.0756 14.15781713 52220
0 SL-16 DEB
1 25409U 98045C   18339.53280760 -.00000001 +00000-0 +38170-4 0  9996
2 25409 071.0811 005.2788 0194965 214.6470 299.8786 13.74440715020869
0 SL-16 DEB
1 25410U 98045D   18339.89801781 +.00000017 +00000-0 +56766-4 0  9996
2 25410 070.9812 016.2495 0206862 058.8827 358.6940 13.70841897018013
0 SL-16 DEB
1 25410U 98045D   18340.49058535  .00000021  00000-0  60930-4 0  9998
2 25410  70.9811  15.0917 0206877  58.0411  43.0396 13.70841978 18374
0 SL-16 DEB
1 25411U 98045E   18340.43797214 -.00000023  00000-0  18477-4 0  9999
2 25411  70.9887  26.1196 0210761  30.1614 331.1423 13.70632263 18190
0 SL-16 DEB
1 25411U 98045E   18339.56222247 -.00000037 +00000-0 +45751-5 0  9991
2 25411 070.9875 027.8302 0210683 031.4179 329.9305 13.70632231017780
0 SL-16 DEB
1 25412U 98045F   18339.93939860 -.00000030 +00000-0 +12023-4 0  9997
2 25412 071.0800 323.7368 0187050 211.2064 177.4194 13.76134527021938
0 ORBCOMM FM 17
1 25413U 98046A   18339.93729591 +.00000014 +00000-0 +58105-4 0  9999
2 25413 044.9963 295.1491 0003198 272.5233 087.5246 14.30762809061311
0 ORBCOMM FM 17
1 25413U 98046A   18340.14677241  .00000016  00000-0  59056-4 0  9996
2 25413  44.9963 294.1675 0003188 273.3793  86.6687 14.30762838 61516
